OBJECT_NAME,OBJECT_ID,EPOCH,MEAN_MOTION,ECCENTRICITY,INCLINATION,RA_OF_ASC_NODE,ARG_OF_PERICENTER,MEAN_ANOMALY,EPHEMERIS_TYPE,CLASSIFICATION_TYPE,NORAD_CAT_ID,ELEMENT_SET_NO,REV_AT_EPOCH,BSTAR,MEAN_MOTION_DOT,MEAN_MOTION_DDOT
COSMOS 2058,1990-010A,2026-07-14T12:46:09.145920,15.12154311,.00079107,82.4672,282.3864,252.8218,107.2147,0,U,20465,999,96140,.91842418E-4,.1613E-4,0
SL-14 R/B,1990-010B,2026-07-14T08:20:04.610976,14.83662792,.00183478,82.5035,148.4387,240.2871,119.6518,0,U,20466,999,94726,.20636298E-4,.194E-5,0
SL-14 R/B,1990-018B,2026-07-14T11:41:20.761440,14.82233800,.00170795,82.5218,104.5922,39.0900,321.1544,0,U,20511,999,94136,.23742944E-4,.213E-5,0
HST,1990-037B,2026-07-14T10:58:42.206016,15.31056727,.00022183,28.4724,254.1506,96.5348,263.5501,0,U,20580,999,79275,.10983918E-3,.3622E-4,0
SL-16 R/B,1990-046B,2026-07-14T14:07:22.208736,14.15024410,.0012423,70.9985,31.3983,115.4296,244.8114,0,U,20625,999,86634,.13982412E-3,.223E-5,0
COSMOS 2084,1990-055A,2026-07-14T13:08:28.572288,15.06222480,.00080082,62.7884,262.6983,317.5125,42.5355,0,U,20663,999,95542,.72029233E-4,.858E-5,0
SL-6 R/B(2),1990-055D,2026-07-14T07:24:00.109440,15.04085810,.00449936,62.7804,183.0791,8.8848,351.3037,0,U,20666,999,95723,.86685447E-4,.1022E-4,0
SL-8 R/B,1990-078B,2026-07-14T12:56:07.337184,14.93561218,.03435706,82.9036,136.9055,305.7662,51.2056,0,U,20775,999,82820,.29581638E-3,.10438E-3,0
SL-8 R/B,1991-006B,2026-07-14T09:31:47.940960,13.77509103,.0023477,82.9409,75.7900,42.6656,130.8063,0,U,21088,999,78151,.75591284E-4,.91E-6,0
OKEAN-3,1991-039A,2026-07-14T14:10:42.085632,15.05432304,.00123515,82.5142,213.8044,256.9890,102.9958,0,U,21397,999,88412,.11959885E-3,.1747E-4,0
COSMOS 2151,1991-042A,2026-07-14T12:50:10.939776,15.00512005,.00120194,82.4981,321.2881,357.7779,2.3389,0,U,21422,999,88221,.49063225E-4,.646E-5,0
SL-14 R/B,1991-042B,2026-07-14T05:30:12.222432,14.81917736,.00168886,82.4932,101.5373,180.0620,180.0595,0,U,21423,999,87181,.20195531E-4,.184E-5,0
ERS-1,1991-050A,2026-07-14T14:53:05.127072,14.39532758,.00318313,98.7797,216.9881,183.4467,176.6506,0,U,21574,999,83399,.63367724E-4,.152E-5,0
ARIANE 40 R/B,1991-050F,2026-07-14T13:52:11.238240,14.42971687,.00041872,98.1864,242.9259,62.8630,297.2987,0,U,21610,999,83729,.49110069E-4,.123E-5,0
INTERCOSMOS 25,1991-086A,2026-07-14T14:20:56.955552,12.12240062,.14845562,82.6009,233.2225,203.2142,149.4604,0,U,21819,999,51206,.33527426E-4,.183E-5,0
SL-8 R/B,1992-008B,2026-07-14T11:28:53.238144,13.75983684,.00356321,82.9271,173.4962,138.5622,337.8235,0,U,21876,999,72685,.90058953E-4,.103E-5,0
SL-8 R/B,1992-020B,2026-07-14T14:56:45.961152,13.75550284,.00279432,82.9285,59.4758,305.2778,118.4768,0,U,21938,999,71858,.19769085E-4,.34E-6,0
USA 81,1992-023A,2026-07-14T14:07:32.943936,14.32404850,.00020142,85.0051,58.1889,65.2480,294.8922,0,U,21949,999,11295,.33522346E-4,.111E-5,0
COSMOS 2219,1992-076A,2026-07-14T11:53:02.758848,14.14108962,.0018225,71.0612,112.9869,358.5302,1.5763,0,U,22219,999,73630,-.83489978E-4,-.206E-5,0
SL-16 R/B,1992-076B,2026-07-14T15:26:39.049728,14.16877223,.00150235,71.0005,280.9437,262.8410,206.2772,0,U,22220,999,73981,.10974158E-3,.172E-5,0
COSMOS 2221,1992-080A,2026-07-14T08:26:17.950560,14.96602587,.00156607,82.5046,157.7385,122.8012,237.4721,0,U,22236,999,79973,.71266677E-4,.84E-5,0
SL-16 R/B,1992-093B,2026-07-14T10:48:13.651200,14.15466080,.00022952,71.0218,98.1594,136.6548,223.4755,0,U,22285,999,73109,-.90417663E-4,-.224E-5,0
COSMOS 2228,1992-094A,2026-07-14T13:09:19.366848,14.97674264,.00162653,82.5188,115.8354,231.5091,128.4674,0,U,22286,999,79504,.69708072E-4,.844E-5,0
SL-16 R/B,1993-016B,2026-07-14T13:47:14.469792,14.15312317,.00088711,71.0085,308.6844,139.1547,221.0242,0,U,22566,999,72012,.10847518E-3,.164E-5,0
COSMOS 2242,1993-024A,2026-07-14T07:40:15.965472,14.96983374,.0014617,82.5198,145.5844,235.8702,124.1135,0,U,22626,999,79933,.75042647E-4,.891E-5,0
SL-16 R/B,1993-059B,2026-07-14T10:50:15.470880,14.17249629,.00166148,70.9902,103.8089,9.6226,350.5212,0,U,22803,999,69749,-.65158624E-4,-.18E-5,0
ARIANE 40 R/B,1993-061H,2026-07-14T10:31:08.135904,14.32918335,.00094733,98.4807,261.7276,268.2675,91.7425,0,U,22830,999,71225,.43226379E-4,.75E-6,0
COSMOS 2278,1994-023A,2026-07-14T14:47:56.723136,14.14393212,.00096673,71.0524,269.5368,206.4362,153.6269,0,U,23087,999,66275,.139137E-4,-.21E-6,0
SL-16 R/B,1994-023B,2026-07-14T07:45:39.689856,14.15024237,.00014252,70.9983,164.9425,131.3069,228.8177,0,U,23088,999,66400,.61027087E-4,.71E-6,0
SL-16 R/B,1994-074B,2026-07-14T14:46:12.965376,14.79524019,.00071202,97.6987,221.1924,155.9874,317.6363,0,U,23343,999,70601,.32309747E-4,.193E-5,0
