COSMOS 2058             
1 20465U 90010A   26195.53205030  .00001613  00000+0  91842-4 0  9996
2 20465  82.4672 282.3864 0007910 252.8218 107.2147 15.12154311961402
SL-14 R/B               
1 20466U 90010B   26195.34727559  .00000194  00000+0  20636-4 0  9997
2 20466  82.5035 148.4387 0018347 240.2871 119.6518 14.83662792947262
SL-14 R/B               
1 20511U 90018B   26195.48704585  .00000213  00000+0  23743-4 0  9999
2 20511  82.5218 104.5922 0017079  39.0900 321.1544 14.82233800941369
HST                     
1 20580U 90037B   26195.45743294  .00003622  00000+0  10984-3 0  9992
2 20580  28.4724 254.1506 0002218  96.5348 263.5501 15.31056727792754
SL-16 R/B               
1 20625U 90046B   26195.58845149  .00000223  00000+0  13982-3 0  9993
2 20625  70.9985  31.3983 0012423 115.4296 244.8114 14.15024410866345
COSMOS 2084             
1 20663U 90055A   26195.54755292  .00000858  00000+0  72029-4 0  9992
2 20663  62.7884 262.6983 0008008 317.5125  42.5355 15.06222480955429
SL-6 R/B(2)             
1 20666U 90055D   26195.30833460  .00001022  00000+0  86685-4 0  9990
2 20666  62.7804 183.0791 0044993   8.8848 351.3037 15.04085810957233
SL-8 R/B                
1 20775U 90078B   26195.53897381  .00010438  00000+0  29582-3 0  9996
2 20775  82.9036 136.9055 0343570 305.7662  51.2056 14.93561218828200
SL-8 R/B                
1 21088U 91006B   26195.39708265  .00000091  00000+0  75591-4 0  9998
2 21088  82.9409  75.7900 0023477  42.6656 130.8063 13.77509103781512
OKEAN-3                 
1 21397U 91039A   26195.59076488  .00001747  00000+0  11960-3 0  9992
2 21397  82.5142 213.8044 0012351 256.9890 102.9958 15.05432304884123
COSMOS 2151             
1 21422U 91042A   26195.53484884  .00000646  00000+0  49063-4 0  9995
2 21422  82.4981 321.2881 0012019 357.7779   2.3389 15.00512005882213
SL-14 R/B               
1 21423U 91042B   26195.22930813  .00000184  00000+0  20196-4 0  9993
2 21423  82.4932 101.5373 0016888 180.0620 180.0595 14.81917736871810
ERS-1                   
1 21574U 91050A   26195.62019823  .00000152  00000+0  63368-4 0  9995
2 21574  98.7797 216.9881 0031831 183.4467 176.6506 14.39532758833992
ARIANE 40 R/B           
1 21610U 91050F   26195.57790785  .00000123  00000+0  49110-4 0  9990
2 21610  98.1864 242.9259 0004187  62.8630 297.2987 14.42971687837298
INTERCOSMOS 25          
1 21819U 91086A   26195.59788143  .00000183  00000+0  33527-4 0  9998
2 21819  82.6009 233.2225 1484556 203.2142 149.4604 12.12240062512066
SL-8 R/B                
1 21876U 92008B   26195.47839396  .00000103  00000+0  90059-4 0  9995
2 21876  82.9271 173.4962 0035632 138.5622 337.8235 13.75983684726856
SL-8 R/B                
1 21938U 92020B   26195.62275418  .00000034  00000+0  19769-4 0  9996
2 21938  82.9285  59.4758 0027943 305.2778 118.4768 13.75550284718588
USA 81                  
1 21949U 92023A   26195.58857574  .00000111  00000+0  33522-4 0  9994
2 21949  85.0051  58.1889 0002014  65.2480 294.8922 14.32404850112952
COSMOS 2219             
1 22219U 92076A   26195.49517082 -.00000206  00000+0 -83490-4 0  9996
2 22219  71.0612 112.9869 0018225 358.5302   1.5763 14.14108962736302
SL-16 R/B               
1 22220U 92076B   26195.64350752  .00000172  00000+0  10974-3 0  9990
2 22220  71.0005 280.9437 0015023 262.8410 206.2772 14.16877223739815
COSMOS 2221             
1 22236U 92080A   26195.35159665  .00000840  00000+0  71267-4 0  9995
2 22236  82.5046 157.7385 0015660 122.8012 237.4721 14.96602587799731
SL-16 R/B               
1 22285U 92093B   26195.45015800 -.00000224  00000+0 -90418-4 0  9993
2 22285  71.0218  98.1594 0002295 136.6548 223.4755 14.15466080731090
COSMOS 2228             
1 22286U 92094A   26195.54814082  .00000844  00000+0  69708-4 0  9998
2 22286  82.5188 115.8354 0016265 231.5091 128.4674 14.97674264795049
SL-16 R/B               
1 22566U 93016B   26195.57447303  .00000164  00000+0  10848-3 0  9990
2 22566  71.0085 308.6844 0008871 139.1547 221.0242 14.15312317720124
COSMOS 2242             
1 22626U 93024A   26195.31962923  .00000891  00000+0  75043-4 0  9994
2 22626  82.5198 145.5844 0014617 235.8702 124.1135 14.96983374799332
SL-16 R/B               
1 22803U 93059B   26195.45156795 -.00000180  00000+0 -65159-4 0  9996
2 22803  70.9902 103.8089 0016614   9.6226 350.5212 14.17249629697494
ARIANE 40 R/B           
1 22830U 93061H   26195.43828861  .00000075  00000+0  43226-4 0  9999
2 22830  98.4807 261.7276 0009473 268.2675  91.7425 14.32918335712257
COSMOS 2278             
1 23087U 94023A   26195.61662874 -.00000021  00000+0  13914-4 0  9996
2 23087  71.0524 269.5368 0009667 206.4362 153.6269 14.14393212662759
SL-16 R/B               
1 23088U 94023B   26195.32337604  .00000071  00000+0  61027-4 0  9997
2 23088  70.9983 164.9425 0001425 131.3069 228.8177 14.15024237664005
SL-16 R/B               
1 23343U 94074B   26195.61542784  .00000193  00000+0  32310-4 0  9994
2 23343  97.6987 221.1924 0007120 155.9874 317.6363 14.79524019706018
